{"type": "FeatureCollection", "features": [ {"type": "Feature", "properties": {"norad_id": 44804, "name": "CARTOSAT-3", "group": "resource", "lat": 17.270694203786224, "lon": -125.1782343246619, "alt_km": 510.2859360453258, "timestamp": "2025-12-18T23:35:48.704923+00:00", "meta": {"OBJECT_NAME": "CARTOSAT-3", "OBJECT_ID": "2019-081A", "EPOCH": "2025-12-18T14:58:53.177376", "MEAN_MOTION": 15.19202743, "ECCENTRICITY": 0.00139728, "INCLINATION": 97.4585, "RA_OF_ASC_NODE": 52.133, "ARG_OF_PERICENTER": 64.9051, "MEAN_ANOMALY": 295.3632, "EPHEMERIS_TYPE": 0, "CLASSIFICATION_TYPE": "U", "NORAD_CAT_ID": 44804, "ELEMENT_SET_NO": 999, "REV_AT_EPOCH": 33605, "BSTAR": 0.00019792103, "MEAN_MOTION_DOT": 4.107e-05, "MEAN_MOTION_DDOT": 0}, "tle": {"line1": "1 44804U 19081A   25352.62422659  .00004107  00000+0  19792-3 0  9994", "line2": "2 44804  97.4585  52.1330 0013972  64.9051 295.3632 15.19202743336052"}}, "geometry": {"type": "Point", "coordinates": [-125.1782343246619, 17.270694203786224]}}, {"type": "Feature", "properties": {"norad_id": 44819, "name": "GAOFEN-12 01", "group": "resource", "lat": 57.469940968294424, "lon": -168.46874967728732, "alt_km": 621.5111959046608, "timestamp": "2025-12-18T23:35:48.704933+00:00", "meta": {"OBJECT_NAME": "GAOFEN-12 01", "OBJECT_ID": "2019-082A", "EPOCH": "2025-12-18T14:56:23.794368", "MEAN_MOTION": 14.80664167, "ECCENTRICITY": 0.00016854, "INCLINATION": 97.8124, "RA_OF_ASC_NODE": 358.7491, "ARG_OF_PERICENTER": 202.9111, "MEAN_ANOMALY": 157.2027, "EPHEMERIS_TYPE": 0, "CLASSIFICATION_TYPE": "U", "NORAD_CAT_ID": 44819, "ELEMENT_SET_NO": 999, "REV_AT_EPOCH": 32737, "BSTAR": 5.8948712e-05, "MEAN_MOTION_DOT": 4.02e-06, "MEAN_MOTION_DDOT": 0}, "tle": {"line1": "1 44819U 19082A   25352.62249762  .00000402  00000+0  58949-4 0  9995", "line2": "2 44819  97.8124 358.7491 0001685 202.9111 157.2027 14.80664167327371"}}, "geometry": {"type": "Point", "coordinates": [-168.46874967728732, 57.469940968294424]}}, {"type": "Feature", "properties": {"norad_id": 44873, "name": "CSG-1", "group": "resource", "lat": -81.22837762433498, "lon": -69.63440997492758, "alt_km": 630.9511658939664, "timestamp": "2025-12-18T23:35:48.704943+00:00", "meta": {"OBJECT_NAME": "CSG-1", "OBJECT_ID": "2019-092A", "EPOCH": "2025-12-18T14:17:54.147840", "MEAN_MOTION": 14.82148203, "ECCENTRICITY": 0.00014944, "INCLINATION": 97.8803, "RA_OF_ASC_NODE": 173.8317, "ARG_OF_PERICENTER": 86.2948, "MEAN_ANOMALY": 273.8436, "EPHEMERIS_TYPE": 0, "CLASSIFICATION_TYPE": "U", "NORAD_CAT_ID": 44873, "ELEMENT_SET_NO": 999, "REV_AT_EPOCH": 32472, "BSTAR": 6.3926061e-05, "MEAN_MOTION_DOT": 4.57e-06, "MEAN_MOTION_DDOT": 0}, "tle": {"line1": "1 44873U 19092A   25352.59576560  .00000457  00000+0  63926-4 0  9992", "line2": "2 44873  97.8803 173.8317 0001494  86.2948 273.8436 14.82148203324722"}}, "geometry": {"type": "Point", "coordinates": [-69.63440997492758, -81.22837762433498]}}, {"type": "Feature", "properties": {"norad_id": 46277, "name": "NEMO-HD", "group": "resource", "lat": -67.28154047236374, "lon": 69.63001950728915, "alt_km": 452.55119391170047, "timestamp": "2025-12-18T23:35:48.704953+00:00", "meta": {"OBJECT_NAME": "NEMO-HD", "OBJECT_ID": "2020-061F", "EPOCH": "2025-12-18T14:32:21.762816", "MEAN_MOTION": 15.40447266, "ECCENTRICITY": 0.00015087, "INCLINATION": 97.221, "RA_OF_ASC_NODE": 51.6296, "ARG_OF_PERICENTER": 51.9424, "MEAN_ANOMALY": 308.1959, "EPHEMERIS_TYPE": 0, "CLASSIFICATION_TYPE": "U", "NORAD_CAT_ID": 46277, "ELEMENT_SET_NO": 999, "REV_AT_EPOCH": 29414, "BSTAR": 0.00022542841, "MEAN_MOTION_DOT": 9.046e-05, "MEAN_MOTION_DDOT": 0}, "tle": {"line1": "1 46277U 20061F   25352.60580744  .00009046  00000+0  22543-3 0  9993", "line2": "2 46277  97.2210  51.6296 0001508  51.9424 308.1959 15.40447266294141"}}, "geometry": {"type": "Point", "coordinates": [69.63001950728915, -67.28154047236374]}}, {"type": "Feature", "properties": {"norad_id": 46984, "name": "SENTINEL-6A", "group": "resource", "lat": 65.86392867322908, "lon": -127.745022440862, "alt_km": 1336.3873625105134, "timestamp": "2025-12-18T23:35:48.704980+00:00", "meta": {"OBJECT_NAME": "SENTINEL-6A", "OBJECT_ID": "2020-086A", "EPOCH": "2025-12-18T13:46:27.873408", "MEAN_MOTION": 12.80930818, "ECCENTRICITY": 0.00077113, "INCLINATION": 66.0392, "RA_OF_ASC_NODE": 150.19, "ARG_OF_PERICENTER": 269.2572, "MEAN_ANOMALY": 90.756, "EPHEMERIS_TYPE": 0, "CLASSIFICATION_TYPE": "U", "NORAD_CAT_ID": 46984, "ELEMENT_SET_NO": 999, "REV_AT_EPOCH": 23719, "BSTAR": 2.760479e-06, "MEAN_MOTION_DOT": -6e-07, "MEAN_MOTION_DDOT": 0}, "tle": {"line1": "1 46984U 20086A   25352.57393372 -.00000060  00000+0  27605-5 0  9994", "line2": "2 46984  66.0392 150.1900 0007711 269.2572  90.7560 12.80930818237193"}}, "geometry": {"type": "Point", "coordinates": [-127.745022440862, 65.86392867322908]}}, {"type": "Feature", "properties": {"norad_id": 48079, "name": "GAOFEN-12 02", "group": "resource", "lat": 45.88742975070196, "lon": 175.28473941438853, "alt_km": 621.4237310553726, "timestamp": "2025-12-18T23:35:48.704993+00:00", "meta": {"OBJECT_NAME": "GAOFEN-12 02", "OBJECT_ID": "2021-026A", "EPOCH": "2025-12-18T14:53:13.907040", "MEAN_MOTION": 14.80682189, "ECCENTRICITY": 0.0003601, "INCLINATION": 97.9853, "RA_OF_ASC_NODE": 346.5984, "ARG_OF_PERICENTER": 89.4066, "MEAN_ANOMALY": 270.7558, "EPHEMERIS_TYPE": 0, "CLASSIFICATION_TYPE": "U", "NORAD_CAT_ID": 48079, "ELEMENT_SET_NO": 999, "REV_AT_EPOCH": 25504, "BSTAR": 6.0539657e-05, "MEAN_MOTION_DOT": 4.13e-06, "MEAN_MOTION_DDOT": 0}, "tle": {"line1": "1 48079U 21026A   25352.62029985  .00000413  00000+0  60540-4 0  9993", "line2": "2 48079  97.9853 346.5984 0003601  89.4066 270.7558 14.80682189255040"}}, "geometry": {"type": "Point", "coordinates": [175.28473941438853, 45.88742975070196]}}, {"type": "Feature", "properties": {"norad_id": 48268, "name": "PLEIADES NEO 3", "group": "resource", "lat": -42.25317751020895, "lon": -121.90713065922566, "alt_km": 631.3404118304352, "timestamp": "2025-12-18T23:35:48.705004+00:00", "meta": {"OBJECT_NAME": "PLEIADES NEO 3", "OBJECT_ID": "2021-034A", "EPOCH": "2025-12-18T14:29:28.222368", "MEAN_MOTION": 14.81670983, "ECCENTRICITY": 0.00013224, "INCLINATION": 97.8952, "RA_OF_ASC_NODE": 64.9611, "ARG_OF_PERICENTER": 89.2302, "MEAN_ANOMALY": 270.9062, "EPHEMERIS_TYPE": 0, "CLASSIFICATION_TYPE": "U", "NORAD_CAT_ID": 48268, "ELEMENT_SET_NO": 999, "REV_AT_EPOCH": 25091, "BSTAR": 8.6271347e-05, "MEAN_MOTION_DOT": 6.27e-06, "MEAN_MOTION_DDOT": 0}, "tle": {"line1": "1 48268U 21034A   25352.60379887  .00000627  00000+0  86271-4 0  9995", "line2": "2 48268  97.8952  64.9611 0001322  89.2302 270.9062 14.81670983250919"}}, "geometry": {"type": "Point", "coordinates": [-121.90713065922566, -42.25317751020895]}}, {"type": "Feature", "properties": {"norad_id": 49070, "name": "PLEIADES NEO 4", "group": "resource", "lat": 42.121196791585234, "lon": 58.122306367244306, "alt_km": 620.0530890384334, "timestamp": "2025-12-18T23:35:48.705015+00:00", "meta": {"OBJECT_NAME": "PLEIADES NEO 4", "OBJECT_ID": "2021-073E", "EPOCH": "2025-12-18T15:18:04.610304", "MEAN_MOTION": 14.81673962, "ECCENTRICITY": 0.0001272, "INCLINATION": 97.895, "RA_OF_ASC_NODE": 64.99, "ARG_OF_PERICENTER": 92.7553, "MEAN_ANOMALY": 267.3805, "EPHEMERIS_TYPE": 0, "CLASSIFICATION_TYPE": "U", "NORAD_CAT_ID": 49070, "ELEMENT_SET_NO": 999, "REV_AT_EPOCH": 23463, "BSTAR": 4.4795297e-05, "MEAN_MOTION_DOT": 3e-06, "MEAN_MOTION_DDOT": 0}, "tle": {"line1": "1 49070U 21073E   25352.63755336  .00000300  00000+0  44795-4 0  9993", "line2": "2 49070  97.8950  64.9900 0001272  92.7553 267.3805 14.81673962234637"}}, "geometry": {"type": "Point", "coordinates": [58.122306367244306, 42.121196791585234]}}, {"type": "Feature", "properties": {"norad_id": 49260, "name": "LANDSAT 9", "group": "resource", "lat": -47.494733164331045, "lon": -128.0586813706472, "alt_km": 709.9488077926844, "timestamp": "2025-12-18T23:35:48.705025+00:00", "meta": {"OBJECT_NAME": "LANDSAT 9", "OBJECT_ID": "2021-088A", "EPOCH": "2025-12-18T11:01:00.856416", "MEAN_MOTION": 14.57103836, "ECCENTRICITY": 0.00011165, "INCLINATION": 98.2089, "RA_OF_ASC_NODE": 60.4871, "ARG_OF_PERICENTER": 90.4673, "MEAN_ANOMALY": 269.6653, "EPHEMERIS_TYPE": 0, "CLASSIFICATION_TYPE": "U", "NORAD_CAT_ID": 49260, "ELEMENT_SET_NO": 999, "REV_AT_EPOCH": 22468, "BSTAR": 9.0213287e-05, "MEAN_MOTION_DOT": 3.61e-06, "MEAN_MOTION_DDOT": 0}, "tle": {"line1": "1 49260U 21088A   25352.45903769  .00000361  00000+0  90213-4 0  9998", "line2": "2 49260  98.2089  60.4871 0001116  90.4673 269.6653 14.57103836224680"}}, "geometry": {"type": "Point", "coordinates": [-128.0586813706472, -47.494733164331045]}}, {"type": "Feature", "properties": {"norad_id": 51444, "name": "CSG-2", "group": "resource", "lat": 81.2271967373119, "lon": 110.38598684265791, "alt_km": 614.0729233567745, "timestamp": "2025-12-18T23:35:48.705035+00:00", "meta": {"OBJECT_NAME": "CSG-2", "OBJECT_ID": "2022-008A", "EPOCH": "2025-12-18T15:06:30.479616", "MEAN_MOTION": 14.82150695, "ECCENTRICITY": 0.00014788, "INCLINATION": 97.8799, "RA_OF_ASC_NODE": 173.8634, "ARG_OF_PERICENTER": 83.6122, "MEAN_ANOMALY": 276.526, "EPHEMERIS_TYPE": 0, "CLASSIFICATION_TYPE": "U", "NORAD_CAT_ID": 51444, "ELEMENT_SET_NO": 999, "REV_AT_EPOCH": 20984, "BSTAR": 6.5956616e-05, "MEAN_MOTION_DOT": 4.73e-06, "MEAN_MOTION_DDOT": 0}, "tle": {"line1": "1 51444U 22008A   25352.62951944  .00000473  00000+0  65957-4 0  9996", "line2": "2 51444  97.8799 173.8634 0001478  83.6122 276.5260 14.82150695209845"}}, "geometry": {"type": "Point", "coordinates": [110.38598684265791, 81.2271967373119]}}]}